{
  "type": "FeatureCollection",
  "features": [
    {
      "type": "Feature",
      "properties": {
        "norad_id": 37836,
        "name": "EUTELSAT 16A",
        "group": "eutelsat",
        "lat": 0.027272688376481332,
        "lon": 21.743711159109417,
        "alt_km": 35797.734809571586,
        "timestamp": "2025-12-11T18:59:45.738198+00:00",
        "meta_object_name": "EUTELSAT 16A",
        "meta_object_id": "2011-057A",
        "meta_epoch": "2025-12-11T05:01:33.538080",
        "meta_mean_motion": 1.00271712,
        "meta_eccentricity": 0.00059972,
        "meta_inclination": 0.0589,
        "meta_ra_of_asc_node": 6.1831,
        "meta_arg_of_pericenter": 258.133,
        "meta_mean_anomaly": 267.2462,
        "meta_ephemeris_type": 0,
        "meta_classification_type": "U",
        "meta_norad_cat_id": 37836,
        "meta_element_set_no": 999,
        "meta_rev_at_epoch": 544,
        "meta_bstar": 0,
        "meta_mean_motion_dot": 1.1e-06,
        "meta_mean_motion_ddot": 0,
        "tle_line1": "1 37836U 11057A   25345.20941595  .00000110  00000+0  00000+0 0  9995",
        "tle_line2": "2 37836   0.0589   6.1831 0005997 258.1330 267.2462  1.00271712  5445"
      },
      "geometry": {
        "type": "Point",
        "coordinates": [
          21.743711159109417,
          0.027272688376481332
        ]
      }
    },
    {
      "type": "Feature",
      "properties": {
        "norad_id": 38992,
        "name": "EUTELSAT 21B",
        "group": "eutelsat",
        "lat": 0.04082815411105631,
        "lon": 27.312838570207674,
        "alt_km": 35792.55858598643,
        "timestamp": "2025-12-11T18:59:45.738210+00:00",
        "meta_object_name": "EUTELSAT 21B",
        "meta_object_id": "2012-062B",
        "meta_epoch": "2025-12-11T05:03:10.883232",
        "meta_mean_motion": 1.00271809,
        "meta_eccentricity": 0.0003318,
        "meta_inclination": 0.0666,
        "meta_ra_of_asc_node": 2.6211,
        "meta_arg_of_pericenter": 266.9149,
        "meta_mean_anomaly": 268.0294,
        "meta_ephemeris_type": 0,
        "meta_classification_type": "U",
        "meta_norad_cat_id": 38992,
        "meta_element_set_no": 999,
        "meta_rev_at_epoch": 4794,
        "meta_bstar": 0,
        "meta_mean_motion_dot": 1.36e-06,
        "meta_mean_motion_ddot": 0,
        "tle_line1": "1 38992U 12062B   25345.21054263  .00000136  00000+0  00000+0 0  9992",
        "tle_line2": "2 38992   0.0666   2.6211 0003318 266.9149 268.0294  1.00271809 47948"
      },
      "geometry": {
        "type": "Point",
        "coordinates": [
          27.312838570207674,
          0.04082815411105631
        ]
      }
    },
    {
      "type": "Feature",
      "properties": {
        "norad_id": 39020,
        "name": "EUTELSAT 70B",
        "group": "eutelsat",
        "lat": 0.08102713540784048,
        "lon": 76.19408190610638,
        "alt_km": 35804.12084549022,
        "timestamp": "2025-12-11T18:59:45.738222+00:00",
        "meta_object_name": "EUTELSAT 70B",
        "meta_object_id": "2012-069A",
        "meta_epoch": "2025-12-11T03:34:11.904960",
        "meta_mean_motion": 1.0027174,
        "meta_eccentricity": 0.00043409,
        "meta_inclination": 0.0633,
        "meta_ra_of_asc_node": 342.22,
        "meta_arg_of_pericenter": 263.2328,
        "meta_mean_anomaly": 318.7306,
        "meta_ephemeris_type": 0,
        "meta_classification_type": "U",
        "meta_norad_cat_id": 39020,
        "meta_element_set_no": 999,
        "meta_rev_at_epoch": 4762,
        "meta_bstar": 0,
        "meta_mean_motion_dot": -3.8e-07,
        "meta_mean_motion_ddot": 0,
        "tle_line1": "1 39020U 12069A   25345.14874890 -.00000038  00000+0  00000+0 0  9992",
        "tle_line2": "2 39020   0.0633 342.2200 0004340 263.2328 318.7306  1.00271740 47627"
      },
      "geometry": {
        "type": "Point",
        "coordinates": [
          76.19408190610638,
          0.08102713540784048
        ]
      }
    },
    {
      "type": "Feature",
      "properties": {
        "norad_id": 39122,
        "name": "EUTELSAT 117 WEST A",
        "group": "eutelsat",
        "lat": -0.028538832149428796,
        "lon": -111.13188627082879,
        "alt_km": 35773.93859511413,
        "timestamp": "2025-12-11T18:59:45.738235+00:00",
        "meta_object_name": "EUTELSAT 117 WEST A",
        "meta_object_id": "2013-012A",
        "meta_epoch": "2025-12-11T05:08:38.770368",
        "meta_mean_motion": 1.00271255,
        "meta_eccentricity": 0.00029878,
        "meta_inclination": 0.0133,
        "meta_ra_of_asc_node": 6.2922,
        "meta_arg_of_pericenter": 256.4978,
        "meta_mean_anomaly": 137.7439,
        "meta_ephemeris_type": 0,
        "meta_classification_type": "U",
        "meta_norad_cat_id": 39122,
        "meta_element_set_no": 999,
        "meta_rev_at_epoch": 4654,
        "meta_bstar": 0,
        "meta_mean_motion_dot": -7e-08,
        "meta_mean_motion_ddot": 0,
        "tle_line1": "1 39122U 13012A   25345.21433762 -.00000007  00000+0  00000+0 0  9997",
        "tle_line2": "2 39122   0.0133   6.2922 0002987 256.4978 137.7439  1.00271255 46540"
      },
      "geometry": {
        "type": "Point",
        "coordinates": [
          -111.13188627082879,
          -0.028538832149428796
        ]
      }
    },
    {
      "type": "Feature",
      "properties": {
        "norad_id": 39163,
        "name": "EUTELSAT 7B",
        "group": "eutelsat",
        "lat": 0.0020353724732234345,
        "lon": 12.719541833909846,
        "alt_km": 35775.17005615114,
        "timestamp": "2025-12-11T18:59:45.738248+00:00",
        "meta_object_name": "EUTELSAT 7B",
        "meta_object_id": "2013-022A",
        "meta_epoch": "2025-12-11T04:59:03.776640",
        "meta_mean_motion": 1.00272416,
        "meta_eccentricity": 0.00046104,
        "meta_inclination": 0.0724,
        "meta_ra_of_asc_node": 18.324,
        "meta_arg_of_pericenter": 298.0075,
        "meta_mean_anomaly": 205.5967,
        "meta_ephemeris_type": 0,
        "meta_classification_type": "U",
        "meta_norad_cat_id": 39163,
        "meta_element_set_no": 999,
        "meta_rev_at_epoch": 4607,
        "meta_bstar": 0,
        "meta_mean_motion_dot": 5.4e-07,
        "meta_mean_motion_ddot": 0,
        "tle_line1": "1 39163U 13022A   25345.20768260  .00000054  00000+0  00000+0 0  9997",
        "tle_line2": "2 39163   0.0724  18.3240 0004610 298.0075 205.5967  1.00272416 46071"
      },
      "geometry": {
        "type": "Point",
        "coordinates": [
          12.719541833909846,
          0.0020353724732234345
        ]
      }
    },
    {
      "type": "Feature",
      "properties": {
        "norad_id": 39612,
        "name": "EXPRESS-AT1",
        "group": "eutelsat",
        "lat": 0.026533402144864944,
        "lon": 61.67144130706383,
        "alt_km": 35787.90355548805,
        "timestamp": "2025-12-11T18:59:45.738261+00:00",
        "meta_object_name": "EXPRESS-AT1",
        "meta_object_id": "2014-010A",
        "meta_epoch": "2025-12-11T05:13:02.438976",
        "meta_mean_motion": 1.00271146,
        "meta_eccentricity": 4.682e-05,
        "meta_inclination": 0.0148,
        "meta_ra_of_asc_node": 297.7669,
        "meta_arg_of_pericenter": 272.9948,
        "meta_mean_anomaly": 3.6718,
        "meta_ephemeris_type": 0,
        "meta_classification_type": "U",
        "meta_norad_cat_id": 39612,
        "meta_element_set_no": 999,
        "meta_rev_at_epoch": 4293,
        "meta_bstar": 0,
        "meta_mean_motion_dot": 8.5e-07,
        "meta_mean_motion_ddot": 0,
        "tle_line1": "1 39612U 14010A   25345.21738934  .00000085  00000+0  00000+0 0  9994",
        "tle_line2": "2 39612   0.0148 297.7669 0000468 272.9948   3.6718  1.00271146 42936"
      },
      "geometry": {
        "type": "Point",
        "coordinates": [
          61.67144130706383,
          0.026533402144864944
        ]
      }
    },
    {
      "type": "Feature",
      "properties": {
        "norad_id": 39613,
        "name": "EXPRESS-AT2",
        "group": "eutelsat",
        "lat": -0.002959890584141138,
        "lon": 145.5370426969986,
        "alt_km": 35790.08723005117,
        "timestamp": "2025-12-11T18:59:45.738274+00:00",
        "meta_object_name": "EXPRESS-AT2",
        "meta_object_id": "2014-010B",
        "meta_epoch": "2025-12-11T10:45:06.787872",
        "meta_mean_motion": 1.00271927,
        "meta_eccentricity": 0.0001431,
        "meta_inclination": 0.019,
        "meta_ra_of_asc_node": 312.3221,
        "meta_arg_of_pericenter": 324.7786,
        "meta_mean_anomaly": 104.4523,
        "meta_ephemeris_type": 0,
        "meta_classification_type": "U",
        "meta_norad_cat_id": 39613,
        "meta_element_set_no": 999,
        "meta_rev_at_epoch": 4261,
        "meta_bstar": 0,
        "meta_mean_motion_dot": -2.74e-06,
        "meta_mean_motion_ddot": 0,
        "tle_line1": "1 39613U 14010B   25345.44799523 -.00000274  00000+0  00000+0 0  9992",
        "tle_line2": "2 39613   0.0190 312.3221 0001431 324.7786 104.4523  1.00271927 42615"
      },
      "geometry": {
        "type": "Point",
        "coordinates": [
          145.5370426969986,
          -0.002959890584141138
        ]
      }
    }
  ]
}